[{"OBJECT_NAME":"BLOCK DM-SL R/B","OBJECT_ID":"2009-067B","EPOCH":"2026-04-27T00:23:13.648416","MEAN_MOTION":1.73594872,"ECCENTRICITY":0.44324354,"INCLINATION":12.6543,"RA_OF_ASC_NODE":311.0881,"ARG_OF_PERICENTER":148.8507,"MEAN_ANOMALY":11.8606,"EPHEMERIS_TYPE":0,"CLASSIFICATION_TYPE":"U","NORAD_CAT_ID":36107,"ELEMENT_SET_NO":999,"REV_AT_EPOCH":10403,"BSTAR":0,"MEAN_MOTION_DOT":-1.03e-6,"MEAN_MOTION_DDOT":0},{"OBJECT_NAME":"WGS F3 (USA 211)","OBJECT_ID":"2009-068A","EPOCH":"2026-04-27T00:55:44.373792","MEAN_MOTION":1.00272327,"ECCENTRICITY":3.273e-5,"INCLINATION":0.3912,"RA_OF_ASC_NODE":85.4019,"ARG_OF_PERICENTER":290.3487,"MEAN_ANOMALY":83.2247,"EPHEMERIS_TYPE":0,"CLASSIFICATION_TYPE":"U","NORAD_CAT_ID":36108,"ELEMENT_SET_NO":999,"REV_AT_EPOCH":4608,"BSTAR":0,"MEAN_MOTION_DOT":5.4e-7,"MEAN_MOTION_DDOT":0},{"OBJECT_NAME":"DELTA 4 R/B","OBJECT_ID":"2009-068B","EPOCH":"2026-04-26T18:42:13.273056","MEAN_MOTION":1.19265152,"ECCENTRICITY":0.81699279,"INCLINATION":24.2169,"RA_OF_ASC_NODE":306.0439,"ARG_OF_PERICENTER":182.008,"MEAN_ANOMALY":355.0504,"EPHEMERIS_TYPE":0,"CLASSIFICATION_TYPE":"U","NORAD_CAT_ID":36109,"ELEMENT_SET_NO":999,"REV_AT_EPOCH":7108,"BSTAR":0.00099319367,"MEAN_MOTION_DOT":3.6e-7,"MEAN_MOTION_DDOT":0},{"OBJECT_NAME":"DIRECTV 12","OBJECT_ID":"2009-075A","EPOCH":"2026-04-27T03:38:02.458176","MEAN_MOTION":1.00272158,"ECCENTRICITY":2.568e-5,"INCLINATION":0.0275,"RA_OF_ASC_NODE":70.9499,"ARG_OF_PERICENTER":336.5826,"MEAN_ANOMALY":119.3926,"EPHEMERIS_TYPE":0,"CLASSIFICATION_TYPE":"U","NORAD_CAT_ID":36131,"ELEMENT_SET_NO":999,"REV_AT_EPOCH":4604,"BSTAR":0,"MEAN_MOTION_DOT":-1.14e-6,"MEAN_MOTION_DDOT":0},{"OBJECT_NAME":"BEIDOU-2 G1","OBJECT_ID":"2010-001A","EPOCH":"2026-04-27T06:27:41.853024","MEAN_MOTION":1.00269018,"ECCENTRICITY":0.00036474,"INCLINATION":4.1766,"RA_OF_ASC_NODE":60.5467,"ARG_OF_PERICENTER":296.3612,"MEAN_ANOMALY":95.729,"EPHEMERIS_TYPE":0,"CLASSIFICATION_TYPE":"U","NORAD_CAT_ID":36287,"ELEMENT_SET_NO":999,"REV_AT_EPOCH":5966,"BSTAR":0,"MEAN_MOTION_DOT":-2.87e-6,"MEAN_MOTION_DDOT":0},{"OBJECT_NAME":"BREEZE-M R/B","OBJECT_ID":"2010-002B","EPOCH":"2026-04-27T02:35:11.114592","MEAN_MOTION":1.04040983,"ECCENTRICITY":0.02118581,"INCLINATION":10.8124,"RA_OF_ASC_NODE":36.9108,"ARG_OF_PERICENTER":253.9829,"MEAN_ANOMALY":262.4907,"EPHEMERIS_TYPE":0,"CLASSIFICATION_TYPE":"U","NORAD_CAT_ID":36359,"ELEMENT_SET_NO":999,"REV_AT_EPOCH":6169,"BSTAR":0,"MEAN_MOTION_DOT":-1.82e-6,"MEAN_MOTION_DDOT":0},{"OBJECT_NAME":"SDO","OBJECT_ID":"2010-005A","EPOCH":"2026-04-26T10:53:50.378784","MEAN_MOTION":1.0027269,"ECCENTRICITY":0.0001115,"INCLINATION":34.5467,"RA_OF_ASC_NODE":87.1205,"ARG_OF_PERICENTER":32.9808,"MEAN_ANOMALY":156.034,"EPHEMERIS_TYPE":0,"CLASSIFICATION_TYPE":"U","NORAD_CAT_ID":36395,"ELEMENT_SET_NO":999,"REV_AT_EPOCH":5954,"BSTAR":0,"MEAN_MOTION_DOT":-5.6e-7,"MEAN_MOTION_DDOT":0},{"OBJECT_NAME":"INTELSAT 16 (IS-16)","OBJECT_ID":"2010-006A","EPOCH":"2026-04-27T05:15:09.319104","MEAN_MOTION":1.00270665,"ECCENTRICITY":0.00021396,"INCLINATION":0.0157,"RA_OF_ASC_NODE":280.706,"ARG_OF_PERICENTER":145.3737,"MEAN_ANOMALY":151.7231,"EPHEMERIS_TYPE":0,"CLASSIFICATION_TYPE":"U","NORAD_CAT_ID":36397,"ELEMENT_SET_NO":999,"REV_AT_EPOCH":5914,"BSTAR":0,"MEAN_MOTION_DOT":-2.55e-6,"MEAN_MOTION_DDOT":0},{"OBJECT_NAME":"BREEZE-M DEB [TANK]","OBJECT_ID":"2010-006C","EPOCH":"2026-04-26T14:52:55.955712","MEAN_MOTION":2.26681101,"ECCENTRICITY":0.7196922,"INCLINATION":46.3325,"RA_OF_ASC_NODE":349.5186,"ARG_OF_PERICENTER":197.6613,"MEAN_ANOMALY":110.2529,"EPHEMERIS_TYPE":0,"CLASSIFICATION_TYPE":"U","NORAD_CAT_ID":36399,"ELEMENT_SET_NO":999,"REV_AT_EPOCH":13279,"BSTAR":0.00083612,"MEAN_MOTION_DOT":-1.0e-6,"MEAN_MOTION_DDOT":0},{"OBJECT_NAME":"EWS-G2 (GOES 15)","OBJECT_ID":"2010-008A","EPOCH":"2026-04-27T01:59:21.598368","MEAN_MOTION":1.00272555,"ECCENTRICITY":0.00039905,"INCLINATION":1.1431,"RA_OF_ASC_NODE":83.7693,"ARG_OF_PERICENTER":23.6677,"MEAN_ANOMALY":200.7369,"EPHEMERIS_TYPE":0,"CLASSIFICATION_TYPE":"U","NORAD_CAT_ID":36411,"ELEMENT_SET_NO":999,"REV_AT_EPOCH":5912,"BSTAR":0,"MEAN_MOTION_DOT":1.3e-7,"MEAN_MOTION_DDOT":0},{"OBJECT_NAME":"ECHOSTAR 14","OBJECT_ID":"2010-010A","EPOCH":"2026-04-27T04:31:25.257792","MEAN_MOTION":1.00271292,"ECCENTRICITY":0.00018477,"INCLINATION":0.0185,"RA_OF_ASC_NODE":252.4176,"ARG_OF_PERICENTER":153.8766,"MEAN_ANOMALY":117.8399,"EPHEMERIS_TYPE":0,"CLASSIFICATION_TYPE":"U","NORAD_CAT_ID":36499,"ELEMENT_SET_NO":999,"REV_AT_EPOCH":4604,"BSTAR":0,"MEAN_MOTION_DOT":-1.0e-7,"MEAN_MOTION_DDOT":0},{"OBJECT_NAME":"SES-1","OBJECT_ID":"2010-016A","EPOCH":"2026-04-27T02:34:38.629920","MEAN_MOTION":1.00272087,"ECCENTRICITY":0.00026326,"INCLINATION":0.0226,"RA_OF_ASC_NODE":290.5557,"ARG_OF_PERICENTER":105.0239,"MEAN_ANOMALY":117.1773,"EPHEMERIS_TYPE":0,"CLASSIFICATION_TYPE":"U","NORAD_CAT_ID":36516,"ELEMENT_SET_NO":999,"REV_AT_EPOCH":5852,"BSTAR":0,"MEAN_MOTION_DOT":-1.25e-6,"MEAN_MOTION_DDOT":0},{"OBJECT_NAME":"ASTRA 3B","OBJECT_ID":"2010-021A","EPOCH":"2026-04-27T05:04:38.648352","MEAN_MOTION":1.00269369,"ECCENTRICITY":0.00039064,"INCLINATION":1.3382,"RA_OF_ASC_NODE":84.1321,"ARG_OF_PERICENTER":320.6387,"MEAN_ANOMALY":270.1081,"EPHEMERIS_TYPE":0,"CLASSIFICATION_TYPE":"U","NORAD_CAT_ID":36581,"ELEMENT_SET_NO":999,"REV_AT_EPOCH":5835,"BSTAR":0,"MEAN_MOTION_DOT":1.28e-6,"MEAN_MOTION_DDOT":0},{"OBJECT_NAME":"COMSATBW-2","OBJECT_ID":"2010-021B","EPOCH":"2026-04-27T05:12:38.611584","MEAN_MOTION":1.00269266,"ECCENTRICITY":0.00027026,"INCLINATION":0.014,"RA_OF_ASC_NODE":245.2147,"ARG_OF_PERICENTER":161.7136,"MEAN_ANOMALY":259.6083,"EPHEMERIS_TYPE":0,"CLASSIFICATION_TYPE":"U","NORAD_CAT_ID":36582,"ELEMENT_SET_NO":999,"REV_AT_EPOCH":5844,"BSTAR":0,"MEAN_MOTION_DOT":7.8e-7,"MEAN_MOTION_DDOT":0},{"OBJECT_NAME":"BREEZE-M R/B","OBJECT_ID":"2009-075B","EPOCH":"2026-04-26T18:57:58.818240","MEAN_MOTION":1.99416755,"ECCENTRICITY":0.57635502,"INCLINATION":21.6355,"RA_OF_ASC_NODE":323.5874,"ARG_OF_PERICENTER":92.7372,"MEAN_ANOMALY":2.9847,"EPHEMERIS_TYPE":0,"CLASSIFICATION_TYPE":"U","NORAD_CAT_ID":36587,"ELEMENT_SET_NO":999,"REV_AT_EPOCH":11608,"BSTAR":0,"MEAN_MOTION_DOT":-9.9e-7,"MEAN_MOTION_DDOT":0},{"OBJECT_NAME":"BEIDOU-2 G3","OBJECT_ID":"2010-024A","EPOCH":"2026-04-26T22:30:05.843232","MEAN_MOTION":1.00269992,"ECCENTRICITY":0.000859,"INCLINATION":4.3969,"RA_OF_ASC_NODE":61.718,"ARG_OF_PERICENTER":337.2918,"MEAN_ANOMALY":233.0812,"EPHEMERIS_TYPE":0,"CLASSIFICATION_TYPE":"U","NORAD_CAT_ID":36590,"ELEMENT_SET_NO":999,"REV_AT_EPOCH":5825,"BSTAR":0,"MEAN_MOTION_DOT":-1.43e-6,"MEAN_MOTION_DDOT":0},{"OBJECT_NAME":"BADR-5","OBJECT_ID":"2010-025A","EPOCH":"2026-04-27T05:04:38.648352","MEAN_MOTION":1.00273144,"ECCENTRICITY":0.00031854,"INCLINATION":0.0657,"RA_OF_ASC_NODE":101.0579,"ARG_OF_PERICENTER":338.9112,"MEAN_ANOMALY":237.3755,"EPHEMERIS_TYPE":0,"CLASSIFICATION_TYPE":"U","NORAD_CAT_ID":36592,"ELEMENT_SET_NO":999,"REV_AT_EPOCH":5270,"BSTAR":0,"MEAN_MOTION_DOT":1.35e-6,"MEAN_MOTION_DDOT":0}]
