BLOCK DM-SL R/B         
1 36107U 09067B   26117.01613019 -.00000103  00000+0  00000+0 0  9990
2 36107  12.6543 311.0881 4432435 148.8507  11.8606  1.73594872104036
WGS F3 (USA 211)        
1 36108U 09068A   26117.03870803  .00000054  00000+0  00000+0 0  9994
2 36108   0.3912  85.4019 0000327 290.3487  83.2247  1.00272327 46085
DELTA 4 R/B             
1 36109U 09068B   26116.77932029  .00000036  00000+0  99319-3 0  9999
2 36109  24.2169 306.0439 8169927 182.0080 355.0504  1.19265152 71081
DIRECTV 12              
1 36131U 09075A   26117.15141734 -.00000114  00000+0  00000+0 0  9993
2 36131   0.0275  70.9499 0000256 336.5826 119.3926  1.00272158 46045
BEIDOU-2 G1             
1 36287U 10001A   26117.26923441 -.00000287  00000+0  00000+0 0  9992
2 36287   4.1766  60.5467 0003647 296.3612  95.7290  1.00269018 59664
BREEZE-M R/B            
1 36359U 10002B   26117.10776753 -.00000182  00000+0  00000+0 0  9992
2 36359  10.8124  36.9108 0211858 253.9829 262.4907  1.04040983 61695
SDO                     
1 36395U 10005A   26116.45405531 -.00000056  00000+0  00000+0 0  9995
2 36395  34.5467  87.1205 0001115  32.9808 156.0340  1.00272690 59547
INTELSAT 16 (IS-16)     
1 36397U 10006A   26117.21885786 -.00000255  00000+0  00000+0 0  9998
2 36397   0.0157 280.7060 0002139 145.3737 151.7231  1.00270665 59147
BREEZE-M DEB [TANK]     
1 36399U 10006C   26116.62009208 -.00000100  00000+0  83612-3 0  9994
2 36399  46.3325 349.5186 7196922 197.6613 110.2529  2.26681101132799
EWS-G2 (GOES 15)        
1 36411U 10008A   26117.08288887  .00000013  00000+0  00000+0 0  9992
2 36411   1.1431  83.7693 0003990  23.6677 200.7369  1.00272555 59126
ECHOSTAR 14             
1 36499U 10010A   26117.18848678 -.00000010  00000+0  00000+0 0  9990
2 36499   0.0185 252.4176 0001847 153.8766 117.8399  1.00271292 46046
SES-1                   
1 36516U 10016A   26117.10739155 -.00000125  00000+0  00000+0 0  9994
2 36516   0.0226 290.5557 0002632 105.0239 117.1773  1.00272087 58523
ASTRA 3B                
1 36581U 10021A   26117.21155843  .00000128  00000+0  00000+0 0  9992
2 36581   1.3382  84.1321 0003906 320.6387 270.1081  1.00269369 58354
COMSATBW-2              
1 36582U 10021B   26117.21711356  .00000078  00000+0  00000+0 0  9994
2 36582   0.0140 245.2147 0002702 161.7136 259.6083  1.00269266 58448
BREEZE-M R/B            
1 36587U 09075B   26116.79026410 -.00000099  00000+0  00000+0 0  9992
2 36587  21.6355 323.5874 5763550  92.7372   2.9847  1.99416755116089
BEIDOU-2 G3             
1 36590U 10024A   26116.93756763 -.00000143  00000+0  00000+0 0  9999
2 36590   4.3969  61.7180 0008590 337.2918 233.0812  1.00269992 58251
BADR-5                  
1 36592U 10025A   26117.21155843  .00000135  00000+0  00000+0 0  9996
2 36592   0.0657 101.0579 0003185 338.9112 237.3755  1.00273144 52700
